LANDSAT 5               
1 14780U 84021A   08269.74429827 -.00000025  00000-0  44587-5 0  8128
2 14780  98.1392 334.1588 0006472 193.0363 167.0668 14.57144329306878
SPOT 2                  
1 20436U 90005A   08269.63727831  .00000170  00000-0  10000-3 0  6361
2 20436  98.6394 338.9772 0000253  62.0298  43.2557 14.20069288968146
ERS-2                   
1 23560U 95021A   08269.77343023 -.00000006  00000-0  13800-4 0  3815
2 23560  98.5419 342.4354 0001075  89.7790 270.3512 14.32252331702366
RADARSAT-1              
1 23710U 95059A   08269.81319641  .00000060  00000-0  40190-4 0  5179
2 23710  98.5808 274.3860 0001090  90.0426  33.1907 14.29983581673025
TOMS EP                 
1 23940U 96037A   08269.52258464  .00000043  00000-0  21217-4 0  8818
2 23940  98.0635 146.6101 0030586  93.3471 267.1235 14.52198590651012
MIDORI (ADEOS)          
1 24277U 96046A   08269.48413694 -.00000036  00000-0  21857-5 0  8718
2 24277  98.3259 239.4789 0001466  17.0636 343.0594 14.28587476631136
ORBVIEW 2 (SEASTAR)     
1 24883U 97037A   08269.39237522  .00000005  00000-0  10888-4 0  4842
2 24883  98.3156  26.0978 0001112 346.4390  13.6766 14.59955725593801
IRS-1D                  
1 24971U 97057A   08269.78685445 -.00000029  00000-0  44822-5 0  5952
2 24971  98.2771 312.2191 0054571   4.0941 356.0674 14.32956330574966
TRMM                    
1 25063U 97074A   08269.45621267  .00002647  00000-0  37552-4 0  8782
2 25063  34.9670 289.5274 0000623 278.4555  81.6105 15.55993085618838
SPOT 4                  
1 25260U 98017A   08269.62886944  .00000190  00000-0  10984-3 0  4105
2 25260  98.6896 340.7825 0000553 115.4880  17.9372 14.20047996544781
FASAT B                 
1 25395U 98043B   08269.91867337  .00000037  00000-0  33890-4 0  2672
2 25395  98.3732 308.0816 0001915 271.6991  88.3969 14.24311329530826
TECHSAT 1B (GO-32)      
1 25397U 98043D   08269.22766059 -.00000175  00000-0 -59256-4 0  7053
2 25397  98.3576 299.4107 0000809 356.2146   3.9019 14.23147671530446
LANDSAT 7               
1 25682U 99020A   08269.78146384  .00000071  00000-0  25634-4 0  8990
2 25682  98.1835 335.2032 0000643  87.1480 272.9790 14.57123334502576
KITSAT 3                
1 25756U 99029A   08269.57458095  .00000028  00000-0  18809-4 0  7305
2 25756  98.6644  87.7772 0013180 257.9170 102.0551 14.52510281494747
DLR-TUBSAT              
1 25757U 99029B   08269.72864028  .00000021  00000-0  17584-4 0   811
2 25757  98.6713  78.9668 0013446 283.2996  76.6703 14.50829521494365
IRS-P4 (OCEANSAT 1)     
1 25758U 99029C   08268.89327763 -.00000038  00000-0  13334-5 0  9671
2 25758  98.2800   2.1183 0001096  49.9986 310.1308 14.50849875494398
QUIKSCAT                
1 25789U 99034A   08269.57417735 -.00000040  00000-0  16740-5 0  2508
2 25789  98.6361  96.1801 0000877  31.6162 328.5066 14.26776151482725
IKONOS 2                
1 25919U 99051A   08269.78420763 -.00000072  00000-0 -46447-5 0   130
2 25919  98.1077 343.0560 0001133 118.2685 241.8634 14.64448538481367
CBERS 1 (ZY 1A)         
1 25940U 99057A   08269.77383724  .00000053  00000-0  33325-4 0   928
2 25940  98.1656 283.8158 0005797 145.3818 214.7736 14.34431178468903
TERRA                   
1 25994U 99068A   08269.80159010  .00000032  00000-0  17123-4 0  9836
2 25994  98.2031 342.5023 0001581 107.6944 252.4426 14.57114816466659
ARIRANG 1 (KOMPSAT-1)   
1 26032U 99070A   08269.80393388 -.00000008  00000-0  71204-5 0  1445
2 26032  97.9531 153.3530 0005310   7.0970 353.0322 14.65545171468769
EO-1                    
1 26619U 00075A   08269.75327631 -.00000638  00000-0 -11839-3 0  3566
2 26619  98.1468 334.9029 0010328  59.6272 300.5897 14.61779504417634
SAC C                   
1 26620U 00075B   08269.57210609  .00000064  00000-0  23939-4 0  5337
2 26620  97.9471 309.2679 0001542  90.1970 269.9430 14.56529502417159
EROS A1                 
1 26631U 00079A   08269.77891851 -.00000383  00000-0 -13422-4 0  1001
2 26631  97.3535 333.7524 0007868 162.6929 346.2766 15.22845820434320
QUICKBIRD 2             
1 26953U 01047A   08269.60864979  .00001463  00000-0  38805-4 0  2176
2 26953  97.1728 345.9732 0002268 104.0481  31.7249 15.39907985389899
TES                     
1 26957U 01049A   08269.59689713 -.00001623  00000-0 -12656-3 0  3582
2 26957  97.5640 348.6242 0023068  26.5747 333.6648 14.99590004379532
JASON 1                 
1 26997U 01055A   08269.49586534 -.00000038  00000-0  10000-3 0  9315
2 26997  66.0400 260.4330 0008017 261.2862  98.7232 12.80930432318131
METEOR-3M               
1 27001U 01056A   08268.96739500 -.00000031  00000-0  13487-4 0  2642
2 27001  99.2912 128.6925 0014038   8.8254 351.3140 13.68703284339239
BADR-B                  
1 27003U 01056C   08269.82040093  .00000116  00000-0  17993-3 0  1593
2 27003  99.2851 135.3976 0020768  10.6548 349.5036 13.70095888339755
MAROC-TUBSAT            
1 27004U 01056D   08268.83683312  .00000023  00000-0  74373-4 0  1741
2 27004  99.2831 133.8855 0020331  14.0904 346.0806 13.70024003339593
ENVISAT                 
1 27386U 02009A   08269.40333157  .00000052  00000-0  35520-4 0  6676
2 27386  98.5503 334.5796 0001045  83.7199 276.4088 14.32247690343599
SPOT 5                  
1 27421U 02021A   08269.79145626  .00000025  00000-0  32213-4 0  3352
2 27421  98.6756 339.6159 0001457 103.0258 257.1084 14.20050235331647
AQUA                    
1 27424U 02022A   08269.54730617  .00000093  00000-0  30659-4 0  9778
2 27424  98.2363 208.9702 0001104  79.8462 280.2867 14.57101337340228
HAIYANG-1A              
1 27430U 02024A   08268.96201978  .00000016  00000-0  23106-4 0  8790
2 27430  98.5183 335.5274 0009311 135.1429 225.0505 14.29666885332170
ALSAT 1                 
1 27559U 02054A   08269.58087855  .00000019  00000-0  12630-4 0  6331
2 27559  97.9784 147.2024 0010212 183.0067 177.1077 14.62979447311003
MIDORI II (ADEOS-II)    
1 27597U 02056A   08269.42876777  .00000081  00000-0  51484-4 0  6673
2 27597  98.5112 335.9588 0001049  36.5613 323.5643 14.26139769301050
ICESAT                  
1 27642U 03002A   08268.91111487  .00000163  00000-0  17893-4 0  9882
2 27642  94.0007 158.1500 0002273  83.9457 276.2031 14.90877650310140
ORBVIEW 3               
1 27838U 03030A   08269.58925322  .00001401  00000-0  37391-4 0  7536
2 27838  97.0965 330.9573 0001174  66.8880  57.8564 15.39760139294672
IRS-P6 (RESOURCESAT-1)  
1 28051U 03046A   08269.61722438  .00000012  00000-0  25562-4 0  8814
2 28051  98.7431 342.4274 0002316 161.7473 198.3791 14.21614952256520
CBERS 2 (ZY 1B)         
1 28057U 03049A   08269.75886771 -.00000015  00000-0  94161-5 0  6767
2 28057  98.3242 325.9434 0000633 312.2317  47.8813 14.35340736258476
TANSUO 1                
1 28220U 04012A   08269.81687027 -.00000076  00000-0 -26409-5 0  9974
2 28220  97.5326 314.8724 0011865 358.4519   1.6662 14.88550177241085
FORMOSAT-2 (ROCSAT 2)   
1 28254U 04018A   08269.57498472  .00000106  00000-0  10000-3 0  9794
2 28254  98.9099 330.6850 0000529 213.8433 252.9871 14.00782742222478
AURA                    
1 28376U 04026A   08269.00386574  .00000058  00000-0  22924-4 0  3154
2 28376  98.2355 210.5854 0001056  89.8921 270.2409 14.57096703223197
PARASOL                 
1 28498U 04049G   08268.99949992  .00000065  00000-0  24537-4 0  2249
2 28498  98.2388 208.1623 0001088  74.6749 285.4584 14.57104634200460
IRS-P5 (CARTOSAT-1)     
1 28649U 05017A   08269.59132178  .00000040  00000-0  11493-4 0  8639
2 28649  97.8976 340.4288 0001096 111.4383 248.6953 14.82646841183657
TOPSAT                  
1 28891U 05043B   08269.78843478 -.00000046  00000-0  18792-7 0  2914
2 28891  98.0765 160.8560 0018383  95.0784 265.2521 14.59731938155292
SINAH 1                 
1 28893U 05043D   08269.61525135 -.00000021  00000-0  51801-5 0  2464
2 28893  98.0796 161.3750 0016660  94.5825 265.7259 14.60050602155300
ALOS (DAICHI)           
1 28931U 06002A   08269.79661951  .00000090  00000-0  28710-4 0   240
2 28931  98.2190 341.8871 0001053  94.7049 265.4270 14.59542087142332
EROS B                  
1 29079U 06014A   08269.61185531  .00000858  00000-0  41294-4 0  7558
2 29079  97.4184  27.9398 0006132 235.8454 219.7093 15.21428750134287
RSS-1 (YAOGAN 1)        
1 29092U 06015A   08269.59021218  .00000007  00000-0  75069-5 0  7242
2 29092  97.8249 264.1393 0000900  47.9591 312.1693 14.80277269130628
RESURS-DK 1             
1 29228U 06021A   08269.60752332  .00000970  00000-0  22284-4 0  5876
2 29228  69.9370 358.9997 0161752 233.3498 125.2653 15.34938907127769
ARIRANG 2 (KOMPSAT-2)   
1 29268U 06031A   08269.73493693  .00000029  00000-0  15232-4 0  4247
2 29268  98.0631 163.1649 0016794 257.4372 102.4960 14.61660900115454
LAPAN-TUBSAT            
1 29709U 07001A   08269.55578700 -.00000006  00000-0  59834-5 0  8975
2 29709  97.8547 325.5691 0014709  66.2241 294.0517 14.80226099 92338
CARTOSAT-2 (IRS-P7)     
1 29710U 07001B   08269.59432014 -.00000015  00000-0  49740-5 0  9053
2 29710  97.9221 328.9536 0001875 116.5125 243.6280 14.78645197 92287
HAIYANG-1B              
1 31113U 07010A   08269.60483501  .00000014  00000-0  22881-4 0  6334
2 31113  98.5752 341.9082 0023606 100.5029 259.8826 14.28218913 76145
COSMO-SKYMED 1          
1 31598U 07023A   08269.55685605 -.00000032  00000-0  25675-5 0  4714
2 31598  97.8677  96.8483 0001303  79.4017 280.7357 14.82162785 70424
TERRASAR-X              
1 31698U 07026A   08269.61150513  .00000220  00000-0  13659-4 0  4378
2 31698  97.4461 274.8201 0001595  76.7081  31.1661 15.19152417 71106
WORLDVIEW-1 (WV-1)      
1 32060U 07041A   08269.62362991  .00000384  00000-0  18625-4 0  1540
2 32060  97.4580 342.8522 0001908  57.9678  46.2529 15.24303542 56785
CBERS 2B                
1 32062U 07042A   08269.61424382  .00000013  00000-0  19667-4 0  1440
2 32062  98.5128 343.4860 0000566  88.1613 271.9646 14.35436347 53441
